[{"OBJECT_NAME":"STARLINK-34708","OBJECT_ID":"2025-165G","EPOCH":"2026-03-09T17:09:33.266304","MEAN_MOTION":15.05666348,"ECCENTRICITY":0.00012979,"INCLINATION":97.6013,"RA_OF_ASC_NODE":147.2452,"ARG_OF_PERICENTER":85.8737,"MEAN_ANOMALY":274.2639,"EPHEMERIS_TYPE":0,"CLASSIFICATION_TYPE":"U","NORAD_CAT_ID":65062,"ELEMENT_SET_NO":999,"REV_AT_EPOCH":3479,"BSTAR":0.0013605964,"MEAN_MOTION_DOT":0.00019634,"MEAN_MOTION_DDOT":0},{"OBJECT_NAME":"PEGASUS DEB","OBJECT_ID":"1994-029BC","EPOCH":"2026-03-09T22:00:19.479168","MEAN_MOTION":15.02669201,"ECCENTRICITY":0.00619411,"INCLINATION":81.9229,"RA_OF_ASC_NODE":10.1044,"ARG_OF_PERICENTER":202.7728,"MEAN_ANOMALY":222.9696,"EPHEMERIS_TYPE":0,"CLASSIFICATION_TYPE":"U","NORAD_CAT_ID":24007,"ELEMENT_SET_NO":999,"REV_AT_EPOCH":60998,"BSTAR":0.00034526552,"MEAN_MOTION_DOT":4.826e-5,"MEAN_MOTION_DDOT":0}]
